NORAD_CAT_ID,OBJECT_NAME,OBJECT_TYPE,EPOCH,MEAN_MOTION,ECCENTRICITY,INCLINATION,RA_OF_ASC_NODE,ARG_OF_PERICENTER,MEAN_ANOMALY,BSTAR,MEAN_MOTION_DOT,MEAN_MOTION_DDOT,TLE_LINE0,TLE_LINE1,TLE_LINE2,SEMIMAJOR_AXIS,PERIOD,APOGEE,PERIGEE,DECAYED
55274.0,STARLINK-5236,PAYLOAD,2024-03-10 14:15:13,14.98337192,0.0003029,69.9996,62.9313,270.7596,89.3216,6.8068e-05,7.19e-06,0.0,0 STARLINK-5236,1 55274U 23010F   24070.59390590  .00000719  00000-0  68068-4 0  9991,2 55274  69.9996  62.9313 0003029 270.7596  89.3216 14.98337192 64069,6950.171,96.107,574.141,569.93,0.0
55274.0,STARLINK-5236,PAYLOAD,2024-03-10 22:15:54,14.98326205,0.0003029,69.9996,62.0898,270.3921,89.6891,-4.186e-05,-5.92e-06,0.0,0 STARLINK-5236,1 55274U 23010F   24070.92771545 -.00000592  00000-0 -41860-4 0  9993,2 55274  69.9996  62.0898 0003029 270.3921  89.6891 14.98326205 64117,6950.205,96.107,574.175,569.964,0.0
55274.0,STARLINK-5236,PAYLOAD,2024-03-11 04:40:26,14.98327452,0.0003036,69.9996,61.4165,270.39,89.6911,1.4213e-05,7.7e-07,0.0,0 STARLINK-5236,1 55274U 23010F   24071.19475370  .00000077  00000-0  14213-4 0  9998,2 55274  69.9996  61.4165 0003036 270.3900  89.6911 14.98327452 63838,6950.201,96.107,574.176,569.956,0.0
55274.0,STARLINK-5236,PAYLOAD,2024-03-11 12:41:06,14.98331797,0.0003036,69.9997,60.5748,270.7504,89.3307,2.0516e-05,1.52e-06,0.0,0 STARLINK-5236,1 55274U 23010F   24071.52855067  .00000152  00000-0  20516-4 0  9997,2 55274  69.9997  60.5748 0003036 270.7504  89.3307 14.98331797 64205,6950.187,96.107,574.162,569.942,0.0
55274.0,STARLINK-5236,PAYLOAD,2024-03-12 04:42:27,14.98328796,0.0003034,69.9998,58.8915,270.1649,89.9162,-1.9475e-05,-3.25e-06,0.0,0 STARLINK-5236,1 55274U 23010F   24072.19615379 -.00000325  00000-0 -19475-4 0  9997,2 55274  69.9998  58.8915 0003034 270.1649  89.9162 14.98328796 63988,6950.197,96.107,574.17,569.953,0.0
55274.0,STARLINK-5236,PAYLOAD,2024-03-12 15:55:23,14.98331921,0.0003016,69.9999,57.7131,270.4923,89.5891,-4.0317e-05,-5.74e-06,0.0,0 STARLINK-5236,1 55274U 23010F   24072.66347175 -.00000574  00000-0 -40317-4 0  9990,2 55274  69.9999  57.7131 0003016 270.4923  89.5891 14.98331921 64378,6950.187,96.107,574.148,569.956,0.0
55274.0,STARLINK-5236,PAYLOAD,2024-03-13 04:44:28,14.98327965,0.0003016,69.9999,56.3666,270.4081,89.6733,4.8894e-05,4.9e-06,0.0,0 STARLINK-5236,1 55274U 23010F   24073.19755238  .00000490  00000-0  48894-4 0  9995,2 55274  69.9999  56.3666 0003016 270.4081  89.6733 14.98327965 64134,6950.199,96.107,574.16,569.968,0.0
55274.0,STARLINK-5236,PAYLOAD,2024-03-13 09:32:52,14.98329961,0.0003015,70.0,55.8616,270.2944,89.787,4.7666e-05,4.76e-06,0.0,0 STARLINK-5236,1 55274U 23010F   24073.39783124  .00000476  00000-0  47666-4 0  9992,2 55274  70.0000  55.8616 0003015 270.2944  89.7870 14.98329961 64483,6950.193,96.107,574.153,569.963,0.0
55274.0,STARLINK-5236,PAYLOAD,2024-03-13 22:21:57,14.98328144,0.0003011,70.0,54.5149,269.554,90.5274,-4.0966e-05,-5.82e-06,0.0,0 STARLINK-5236,1 55274U 23010F   24073.93191453 -.00000582  00000-0 -40966-4 0  9996,2 55274  70.0000  54.5149 0003011 269.5540  90.5274 14.98328144 64568,6950.199,96.107,574.156,569.971,0.0
55274.0,STARLINK-5236,PAYLOAD,2024-03-14 04:46:29,14.98328627,0.0002939,70.0002,53.8419,268.2433,91.8389,3.6109e-05,3.38e-06,0.0,0 STARLINK-5236,1 55274U 23010F   24074.19895263  .00000338  00000-0  36109-4 0  9996,2 55274  70.0002  53.8419 0002939 268.2433  91.8389 14.98328627 64283,6950.197,96.107,574.105,570.019,0.0
55274.0,STARLINK-5236,PAYLOAD,2024-03-14 06:22:37,14.98330861,0.000296,70.0003,53.6737,269.6168,90.4652,5.1038e-05,5.16e-06,0.0,0 STARLINK-5236,1 55274U 23010F   24074.26571088  .00000516  00000-0  51038-4 0  9996,2 55274  70.0003  53.6737 0002960 269.6168  90.4652 14.98330861 64617,6950.19,96.107,574.112,569.998,0.0
55274.0,STARLINK-5236,PAYLOAD,2024-03-14 07:58:45,14.98337264,0.000299,70.0003,53.5054,269.1727,90.9089,-3.0978e-05,-4.63e-06,0.0,0 STARLINK-5236,1 55274U 23010F   24074.33246830 -.00000463  00000-0 -30978-4 0  9991,2 55274  70.0003  53.5054 0002990 269.1727  90.9089 14.98337264 64306,6950.17,96.107,574.114,569.957,0.0
55274.0,STARLINK-5236,PAYLOAD,2024-03-15 04:48:30,14.98327145,0.0002799,70.0006,51.3173,265.9981,94.0859,-2.6351e-06,-1.24e-06,0.0,0 STARLINK-5236,1 55274U 23010F   24075.20035447 -.00000124  00000-0 -26351-5 0  9993,2 55274  70.0006  51.3173 0002799 265.9981  94.0859 14.98327145 64431,6950.202,96.107,574.012,570.121,0.0
55274.0,STARLINK-5236,PAYLOAD,2024-03-15 22:25:59,14.98329635,0.0002809,70.0008,49.466,269.4214,90.6623,-1.5324e-06,-1.11e-06,0.0,0 STARLINK-5236,1 55274U 23010F   24075.93471306 -.00000111  00000-0 -15324-5 0  9995,2 55274  70.0008  49.4660 0002809 269.4214  90.6623 14.98329635 64866,6950.194,96.107,574.011,570.107,0.0
55274.0,STARLINK-5236,PAYLOAD,2024-03-16 04:50:31,14.98330009,0.0002852,70.0008,48.7923,269.4166,90.6666,-2.416e-05,-3.81e-06,0.0,0 STARLINK-5236,1 55274U 23010F   24076.20175341 -.00000381  00000-0 -24160-4 0  9992,2 55274  70.0008  48.7923 0002852 269.4166  90.6666 14.98330009 64587,6950.193,96.107,574.04,570.076,0.0
55274.0,STARLINK-5236,PAYLOAD,2024-03-16 08:02:47,14.98330011,0.0002856,70.0008,48.4557,269.7157,90.3675,-2.3027e-05,-3.68e-06,0.0,0 STARLINK-5236,1 55274U 23010F   24076.33527342 -.00000368  00000-0 -23027-4 0  9994,2 55274  70.0008  48.4557 0002856 269.7157  90.3675 14.98330011 64922,6950.193,96.107,574.043,570.073,0.0
55274.0,STARLINK-5236,PAYLOAD,2024-03-16 22:27:59,14.98331371,0.0002941,70.0008,46.9412,267.3102,92.772,2.3511e-05,1.88e-06,0.0,0 STARLINK-5236,1 55274U 23010F   24076.93611077  .00000188  00000-0  23511-4 0  9995,2 55274  70.0008  46.9412 0002941 267.3102  92.7720 14.98331371 65012,6950.189,96.107,574.098,570.01,0.0
55274.0,STARLINK-5236,PAYLOAD,2024-03-17 04:52:32,14.98332273,0.0002927,70.0008,46.2678,266.875,93.2074,3.4274e-05,3.16e-06,0.0,0 STARLINK-5236,1 55274U 23010F   24077.20314958  .00000316  00000-0  34274-4 0  9995,2 55274  70.0008  46.2678 0002927 266.8750  93.2074 14.98332273 64734,6950.186,96.107,574.085,570.017,0.0
55274.0,STARLINK-5236,PAYLOAD,2024-03-17 08:04:48,14.98333815,0.0002914,70.0009,45.9312,266.8012,93.2814,5.0676e-05,5.12e-06,0.0,0 STARLINK-5236,1 55274U 23010F   24077.33666789  .00000512  00000-0  50676-4 0  9993,2 55274  70.0009  45.9312 0002914 266.8012  93.2814 14.98333815 65076,6950.181,96.107,574.071,570.021,0.0
55274.0,STARLINK-5236,PAYLOAD,2024-03-17 22:30:00,14.9833055,0.000284,70.001,44.4162,267.3756,92.7078,2.8416e-05,2.46e-06,0.0,0 STARLINK-5236,1 55274U 23010F   24077.93750981  .00000246  00000-0  28416-4 0  9998,2 55274  70.0010  44.4162 0002840 267.3756  92.7078 14.98330550 65163,6950.191,96.107,574.03,570.082,0.0
55274.0,STARLINK-5236,PAYLOAD,2024-03-18 04:54:33,14.98331445,0.0002821,70.0012,43.7429,267.0838,92.9999,3.823e-05,3.63e-06,0.0,0 STARLINK-5236,1 55274U 23010F   24078.20454866  .00000363  00000-0  38230-4 0  9997,2 55274  70.0012  43.7429 0002821 267.0838  92.9999 14.98331445 64886,6950.188,96.107,574.014,570.093,0.0
55274.0,STARLINK-5236,PAYLOAD,2024-03-18 06:30:41,14.98331857,0.0002812,70.0012,43.5746,267.2113,92.8724,4.2317e-05,4.12e-06,0.0,0 STARLINK-5236,1 55274U 23010F   24078.27130819  .00000412  00000-0  42317-4 0  9999,2 55274  70.0012  43.5746 0002812 267.2113  92.8724 14.98331857 65214,6950.187,96.107,574.007,570.098,0.0
55274.0,STARLINK-5236,PAYLOAD,2024-03-18 22:32:01,14.98331356,0.0002682,70.0016,41.8916,263.4047,96.6807,-9.6359e-06,-2.08e-06,0.0,0 STARLINK-5236,1 55274U 23010F   24078.93890894 -.00000208  00000-0 -96359-5 0  9999,2 55274  70.0016  41.8916 0002682 263.4047  96.6807 14.98331356 65316,6950.189,96.107,573.918,570.19,0.0
55274.0,STARLINK-5236,PAYLOAD,2024-03-19 06:32:41,14.98333276,0.0002647,70.0018,41.0502,263.6035,96.4823,1.4668e-05,8.2e-07,0.0,0 STARLINK-5236,1 55274U 23010F   24079.27270667  .00000082  00000-0  14668-4 0  9997,2 55274  70.0018  41.0502 0002647 263.6035  96.4823 14.98333276 65365,6950.183,96.107,573.887,570.208,0.0
55274.0,STARLINK-5236,PAYLOAD,2024-03-19 20:57:53,14.98336662,0.000266,70.0019,39.5354,264.0768,96.0088,4.6633e-05,4.64e-06,0.0,0 STARLINK-5236,1 55274U 23010F   24079.87354145  .00000464  00000-0  46633-4 0  9998,2 55274  70.0019  39.5354 0002660 264.0768  96.0088 14.98336662 65132,6950.172,96.107,573.886,570.189,0.0
55274.0,STARLINK-5236,PAYLOAD,2024-03-20 06:34:42,14.98337306,0.0002668,70.0019,38.5256,258.4875,101.5984,5.0973e-05,5.15e-06,0.0,0 STARLINK-5236,1 55274U 23010F   24080.27409875  .00000515  00000-0  50973-4 0  9994,2 55274  70.0019  38.5256 0002668 258.4875 101.5984 14.98337306 65511,6950.17,96.107,573.89,570.181,0.0
55274.0,STARLINK-5236,PAYLOAD,2024-03-20 22:36:03,14.98324933,0.0002956,70.0017,36.8424,262.757,97.3253,-8.0215e-05,-1.05e-05,0.0,0 STARLINK-5236,1 55274U 23010F   24080.94170979 -.00001050  00000-0 -80215-4 0  9997,2 55274  70.0017  36.8424 0002956 262.7570  97.3253 14.98324933 65611,6950.209,96.107,574.128,570.019,0.0
55274.0,STARLINK-5236,PAYLOAD,2024-03-21 05:00:36,14.98322084,0.0002785,70.0013,36.167,259.5081,100.5764,-8.4739e-05,-1.104e-05,0.0,0 STARLINK-5236,1 55274U 23010F   24081.20875232 -.00001104  00000-0 -84739-4 0  9996,2 55274  70.0013  36.1670 0002785 259.5081 100.5764 14.98322084 65332,6950.217,96.108,574.018,570.147,0.0
55274.0,STARLINK-5236,PAYLOAD,2024-03-21 14:37:24,14.98327851,0.0002968,70.0017,35.1575,266.2005,93.8815,-5.4691e-05,-7.45e-06,0.0,0 STARLINK-5236,1 55274U 23010F   24081.60930877 -.00000745  00000-0 -54691-4 0  9991,2 55274  70.0017  35.1575 0002968 266.2005  93.8815 14.98327851 65713,6950.2,96.107,574.127,570.002,0.0
55274.0,STARLINK-5236,PAYLOAD,2024-03-21 21:01:56,14.98331402,0.0002871,70.0016,34.484,261.4854,98.598,-4.7755e-05,-6.63e-06,0.0,0 STARLINK-5236,1 55274U 23010F   24081.87634621 -.00000663  00000-0 -47755-4 0  9990,2 55274  70.0016  34.4840 0002871 261.4854  98.5980 14.98331402 65432,6950.189,96.107,574.049,570.058,0.0
